OBJECT_NAME,OBJECT_ID,EPOCH,MEAN_MOTION,ECCENTRICITY,INCLINATION,RA_OF_ASC_NODE,ARG_OF_PERICENTER,MEAN_ANOMALY,EPHEMERIS_TYPE,CLASSIFICATION_TYPE,NORAD_CAT_ID,ELEMENT_SET_NO,REV_AT_EPOCH,BSTAR,MEAN_MOTION_DOT,MEAN_MOTION_DDOT
YAMAL 401,2014-082A,2026-07-06T21:03:52.999200,1.00273709,.0000591,0.0374,216.8421,203.3329,270.6012,0,U,40345,999,4211,0,-.214E-5,0
ASTRA 2G,2014-089A,2026-07-06T17:20:57.886944,1.00271618,.0004626,0.0454,2.1386,73.1510,137.8459,0,U,40364,999,4216,0,.165E-5,0
FENGYUN 2G,2014-090A,2026-07-06T18:23:02.087232,1.00264571,.0003771,5.6854,72.5838,150.1206,77.2680,0,U,40367,999,4219,0,-.288E-5,0
MUOS-3,2015-002A,2026-07-06T20:33:47.184768,1.00270245,.0052982,4.5579,43.6024,177.5229,356.6463,0,U,40374,999,4178,0,-.117E-5,0
INMARSAT 5-F2,2015-005A,2026-07-06T11:49:14.418336,1.00272257,.0000267,0.0188,31.3041,64.5198,310.9533,0,U,40384,999,4118,0,-.271E-5,0
ABS-3A,2015-010A,2026-07-06T20:37:16.849920,1.00268967,.0001582,0.0429,66.4723,348.4096,176.2884,0,U,40424,999,4157,0,0,0
EUTELSAT 115 WEST B,2015-010B,2026-07-06T16:40:07.449024,1.00268587,.0000259,0.0014,213.6905,153.8036,52.2926,0,U,40425,999,4157,0,-.1E-6,0
EXPRESS-AM7,2015-012A,2026-07-06T20:42:49.242816,1.00273578,.0003002,0.0208,72.8674,42.5966,160.0789,0,U,40505,999,4120,0,.165E-5,0
BEIDOU-3S IGSO-1S,2015-019A,2026-07-02T19:12:21.705408,1.00680073,.00768606,49.1798,295.2769,219.1125,144.2493,0,U,40549,999,4123,0,-.19E-5,0
THOR 7,2015-022A,2026-07-06T20:38:01.777920,1.00270719,.00025,0.0156,206.3990,259.6982,127.5932,0,U,40613,999,4101,0,.6E-7,0
TURKMENALEM52E/MONACOSAT,2015-023A,2026-07-06T10:37:00.420672,1.00272900,.00027157,0.0440,83.5660,16.8524,35.2763,0,U,40617,999,4104,0,.118E-5,0
DIRECTV 15,2015-026A,2026-07-06T20:08:47.889888,1.00271570,.0000421,0.0164,68.9346,283.9546,131.2583,0,U,40663,999,4066,0,-.88E-6,0
SKY MEXICO-1,2015-026B,2026-07-06T20:15:47.220192,1.00270935,.0002482,0.0189,297.7972,187.8825,24.2962,0,U,40664,999,4065,0,-.219E-5,0
METEOSAT-11 (MSG-4),2015-034A,2026-07-06T20:40:54.004224,1.00269253,.0002253,3.2495,70.9879,350.8144,182.5355,0,U,40732,999,741,0,.75E-6,0
STAR ONE C4,2015-034B,2026-07-06T01:29:02.240736,1.00275677,.0001836,0.0364,311.8577,123.0123,161.4413,0,U,40733,999,4020,0,-.251E-5,0
WGS F7 (USA 263),2015-036A,2026-07-06T19:45:27.628416,1.00273565,.0000778,0.0435,66.0976,133.6638,196.3913,0,U,40746,999,4006,0,0,0
INTELSAT 34 (IS-34),2015-039A,2026-07-06T13:31:45.780384,1.00272053,.0000523,0.0130,333.9991,36.0445,61.9559,0,U,40874,999,3982,0,-.271E-5,0
EUTELSAT 8 WEST B,2015-039B,2026-07-06T20:36:01.971360,1.00271516,.0003796,0.0622,355.9369,104.4509,125.4483,0,U,40875,999,3985,0,-.51E-6,0
GSAT-6,2015-041A,2026-07-06T19:19:07.653216,1.00269318,.0003138,1.9688,82.3509,13.9833,200.6949,0,U,40880,999,3979,0,-.145E-5,0
INMARSAT 5-F3,2015-042A,2026-07-06T12:56:11.689152,1.00270890,.0000508,0.0195,39.4428,119.6717,139.0426,0,U,40882,999,3976,0,.65E-6,0
MUOS-4,2015-044A,2026-07-06T20:16:15.720960,1.00271645,.0056945,4.3644,42.3403,3.3530,258.1836,0,U,40887,999,3975,0,-.8E-6,0
TJS-1,2015-046A,2026-07-06T08:32:38.546880,1.00268948,.00055887,0.3695,84.8551,12.4038,110.2099,0,U,40892,999,3976,0,-.143E-5,0
EXPRESS-AM8,2015-048A,2026-07-06T20:34:17.137920,1.00250760,.0000808,0.0222,289.1502,259.8985,30.3466,0,U,40895,999,3954,0,-.1E-5,0
BEIDOU-3S IGSO-2S,2015-053A,2026-07-06T15:57:08.432352,1.00255328,.0065881,49.1915,258.5511,192.9035,166.4706,0,U,40938,999,3954,0,-.111E-5,0
SKY MUSTER 1 (NBN1A),2015-054A,2026-07-06T19:35:36.071808,1.00270921,.0001731,0.0158,331.9557,135.5454,251.4419,0,U,40940,999,3945,0,-.264E-5,0
ARSAT 2,2015-054B,2026-07-06T20:15:09.778752,1.00271443,.0002019,0.0210,315.3417,142.1749,50.0954,0,U,40941,999,3950,0,-.21E-5,0
MORELOS 3,2015-056A,2026-07-06T16:40:37.401312,1.00271404,.0000291,3.2031,15.5776,54.5199,351.6233,0,U,40946,999,3948,0,-.3E-6,0
APSTAR-9,2015-059A,2026-07-06T21:18:44.076096,1.00269859,.0003151,0.0150,359.1655,184.4683,202.9192,0,U,40982,999,3931,0,-.251E-5,0
TURKSAT 4B,2015-060A,2026-07-06T20:52:31.589184,1.00269533,.0002534,0.0174,340.2423,132.0364,175.6778,0,U,40984,999,3929,0,.13E-5,0
ZHONGXING-2C,2015-063A,2026-07-06T19:25:07.078080,1.00269419,.0008135,0.3213,88.9813,96.4168,134.1083,0,U,41021,999,3917,0,-.309E-5,0
GSAT-15,2015-065A,2026-07-06T14:14:15.556704,1.00272104,.0003997,0.0319,255.1193,191.4968,145.0177,0,U,41028,999,3899,0,-.243E-5,0
BADR-7 (ARABSAT-6B),2015-065B,2026-07-06T20:45:20.714976,1.00270419,.0004521,0.0429,212.3771,349.3804,60.4009,0,U,41029,999,3896,0,.16E-5,0
