YAMAL 401               
1 40345U 14082A   26187.87769675 -.00000214  00000+0  00000+0 0  9996
2 40345   0.0374 216.8421 0000591 203.3329 270.6012  1.00273709 42118
ASTRA 2G                
1 40364U 14089A   26187.72289221  .00000165  00000+0  00000+0 0  9996
2 40364   0.0454   2.1386 0004626  73.1510 137.8459  1.00271618 42163
FENGYUN 2G              
1 40367U 14090A   26187.76599638 -.00000288  00000+0  00000+0 0  9998
2 40367   5.6854  72.5838 0003771 150.1206  77.2680  1.00264571 42198
MUOS-3                  
1 40374U 15002A   26187.85679612 -.00000117  00000+0  00000+0 0  9992
2 40374   4.5579  43.6024 0052982 177.5229 356.6463  1.00270245 41782
INMARSAT 5-F2           
1 40384U 15005A   26187.49252799 -.00000271  00000+0  00000+0 0  9990
2 40384   0.0188  31.3041 0000267  64.5198 310.9533  1.00272257 41182
ABS-3A                  
1 40424U 15010A   26187.85922280  .00000000  00000+0  00000+0 0  9999
2 40424   0.0429  66.4723 0001582 348.4096 176.2884  1.00268967 41571
EUTELSAT 115 WEST B     
1 40425U 15010B   26187.69453066 -.00000010  00000+0  00000+0 0  9995
2 40425   0.0014 213.6905 0000259 153.8036  52.2926  1.00268587 41570
EXPRESS-AM7             
1 40505U 15012A   26187.86306994  .00000165  00000+0  00000+0 0  9992
2 40505   0.0208  72.8674 0003002  42.5966 160.0789  1.00273578 41208
BEIDOU-3S IGSO-1S       
1 40549U 15019A   26183.80025122 -.00000190  00000+0  00000+0 0  9997
2 40549  49.1798 295.2769 0076860 219.1125 144.2493  1.00680073 41232
THOR 7                  
1 40613U 15022A   26187.85974280  .00000006  00000+0  00000+0 0  9995
2 40613   0.0156 206.3990 0002500 259.6982 127.5932  1.00270719 41017
TURKMENALEM52E/MONACOSAT
1 40617U 15023A   26187.44236598  .00000118  00000+0  00000+0 0  9992
2 40617   0.0440  83.5660 0002715  16.8524  35.2763  1.00272900 41043
DIRECTV 15              
1 40663U 15026A   26187.83944317 -.00000088  00000+0  00000+0 0  9991
2 40663   0.0164  68.9346 0000421 283.9546 131.2583  1.00271570 40664
SKY MEXICO-1            
1 40664U 15026B   26187.84429653 -.00000219  00000+0  00000+0 0  9990
2 40664   0.0189 297.7972 0002482 187.8825  24.2962  1.00270935 40655
METEOSAT-11 (MSG-4)     
1 40732U 15034A   26187.86173616  .00000075  00000+0  00000+0 0  9991
2 40732   3.2495  70.9879 0002253 350.8144 182.5355  1.00269253  7417
STAR ONE C4             
1 40733U 15034B   26187.06183149 -.00000251  00000+0  00000+0 0  9993
2 40733   0.0364 311.8577 0001836 123.0123 161.4413  1.00275677 40205
WGS F7 (USA 263)        
1 40746U 15036A   26187.82323644  .00000000  00000+0  00000+0 0  9990
2 40746   0.0435  66.0976 0000778 133.6638 196.3913  1.00273565 40062
INTELSAT 34 (IS-34)     
1 40874U 15039A   26187.56372431 -.00000271  00000+0  00000+0 0  9995
2 40874   0.0130 333.9991 0000523  36.0445  61.9559  1.00272053 39825
EUTELSAT 8 WEST B       
1 40875U 15039B   26187.85835615 -.00000051  00000+0  00000+0 0  9992
2 40875   0.0622 355.9369 0003796 104.4509 125.4483  1.00271516 39859
GSAT-6                  
1 40880U 15041A   26187.80494969 -.00000145  00000+0  00000+0 0  9993
2 40880   1.9688  82.3509 0003138  13.9833 200.6949  1.00269318 39791
INMARSAT 5-F3           
1 40882U 15042A   26187.53902418  .00000065  00000+0  00000+0 0  9999
2 40882   0.0195  39.4428 0000508 119.6717 139.0426  1.00270890 39761
MUOS-4                  
1 40887U 15044A   26187.84462640 -.00000080  00000+0  00000+0 0  9996
2 40887   4.3644  42.3403 0056945   3.3530 258.1836  1.00271645 39752
TJS-1                   
1 40892U 15046A   26187.35600170 -.00000143  00000+0  00000+0 0  9992
2 40892   0.3695  84.8551 0005588  12.4038 110.2099  1.00268948 39768
EXPRESS-AM8             
1 40895U 15048A   26187.85714280 -.00000100  00000+0  00000+0 0  9993
2 40895   0.0222 289.1502 0000808 259.8985  30.3466  1.00250760 39547
BEIDOU-3S IGSO-2S       
1 40938U 15053A   26187.66468093 -.00000111  00000+0  00000+0 0  9996
2 40938  49.1915 258.5511 0065881 192.9035 166.4706  1.00255328 39546
SKY MUSTER 1 (NBN1A)    
1 40940U 15054A   26187.81638972 -.00000264  00000+0  00000+0 0  9991
2 40940   0.0158 331.9557 0001731 135.5454 251.4419  1.00270921 39454
ARSAT 2                 
1 40941U 15054B   26187.84386318 -.00000210  00000+0  00000+0 0  9990
2 40941   0.0210 315.3417 0002019 142.1749  50.0954  1.00271443 39509
MORELOS 3               
1 40946U 15056A   26187.69487733 -.00000030  00000+0  00000+0 0  9993
2 40946   3.2031  15.5776 0000291  54.5199 351.6233  1.00271404 39486
APSTAR-9                
1 40982U 15059A   26187.88801014 -.00000251  00000+0  00000+0 0  9994
2 40982   0.0150 359.1655 0003151 184.4683 202.9192  1.00269859 39310
TURKSAT 4B              
1 40984U 15060A   26187.86981006  .00000130  00000+0  00000+0 0  9991
2 40984   0.0174 340.2423 0002534 132.0364 175.6778  1.00269533 39293
ZHONGXING-2C            
1 41021U 15063A   26187.80910970 -.00000309  00000+0  00000+0 0  9992
2 41021   0.3213  88.9813 0008135  96.4168 134.1083  1.00269419 39179
GSAT-15                 
1 41028U 15065A   26187.59323561 -.00000243  00000+0  00000+0 0  9998
2 41028   0.0319 255.1193 0003997 191.4968 145.0177  1.00272104 38993
BADR-7 (ARABSAT-6B)     
1 41029U 15065B   26187.86482309  .00000160  00000+0  00000+0 0  9992
2 41029   0.0429 212.3771 0004521 349.3804  60.4009  1.00270419 38968
